DMSP 5D-3 F18 (USA 210) 
1 35951U 09057A   23027.21909159  .00000369  00000+0  21834-3 0  9992
2 35951  98.7511   6.4099 0011236 164.3864 195.7657 14.13638658684721
GOES 15                 
1 36411U 10008A   23026.73453659  .00000052  00000+0  00000+0 0  9994
2 36411   0.0108  47.8143 0002468 144.8040  69.2997  1.00269159 47246
COMS 1                  
1 36744U 10032A   23027.05049390 -.00000348  00000+0  00000+0 0  9998
2 36744   1.6367  91.1820 0000982 233.0255 308.1772  1.00269995 46244
FENGYUN 3B              
1 37214U 10059A   23027.12470262  .00000167  00000+0  11109-3 0  9998
2 37214  99.0906  42.0555 0023180  84.5221 275.8607 14.14290299632578
SUOMI NPP               
1 37849U 11061A   23027.42056444  .00000147  00000+0  90774-4 0  9995
2 37849  98.7564 328.0908 0001194  71.9645  30.5984 14.19541716582967
FENGYUN 2F              
1 38049U 12002A   23027.06910226 -.00000362  00000+0  00000+0 0  9999
2 38049   4.3401  77.9409 0001334 279.3499 265.7611  1.00267275 40482
METEOSAT-10 (MSG-3)     
1 38552U 12035B   23027.19228573  .00000057  00000+0  00000+0 0  9995
2 38552   1.9000  51.6410 0001644 252.8771 260.3881  1.00264100 38811
METOP-B                 
1 38771U 12049A   23027.46195785  .00000159  00000+0  92633-4 0  9992
2 38771  98.7003  89.0556 0001675  98.9090 324.0604 14.21504522537552
FENGYUN 3C              
1 39260U 13052A   23027.06287631  .00000216  00000+0  13007-3 0  9990
2 39260  98.4377  48.6493 0011068 356.3469   3.7626 14.15983066483569
METEOR-M 2              
1 40069U 14037A   23027.06911680  .00000136  00000+0  82262-4 0  9992
2 40069  98.4254  39.5838 0006480  40.8206 319.3469 14.20740347443612
HIMAWARI-8              
1 40267U 14060A   23026.85224691 -.00000279  00000+0  00000+0 0  9997
2 40267   0.0115 245.5616 0001250  79.1749 248.5922  1.00267354 30454
FENGYUN 2G              
1 40367U 14090A   23026.84212367 -.00000308  00000+0  00000+0 0  9990
2 40367   2.4971  87.2143 0000927 259.9952 181.6751  1.00269927 29634
METEOSAT-11 (MSG-4)     
1 40732U 15034A   23027.33392875  .00000000  00000+0  00000+0 0  9991
2 40732   0.4636   6.8705 0000888  46.5574 193.8364  1.00280227 27609
ELEKTRO-L 2             
1 41105U 15074A   23026.32685383 -.00000122  00000+0  00000+0 0  9993
2 41105   3.5477  85.5280 0002314 166.8911 336.0599  1.00270221 26108
HIMAWARI-9              
1 41836U 16064A   23026.65459273 -.00000279  00000+0  00000+0 0  9990
2 41836   0.0175 109.9101 0001209 220.6112 171.5354  1.00270696 22892
GOES 16                 
1 41866U 16071A   23026.52987331 -.00000252  00000+0  00000+0 0  9999
2 41866   0.0773 259.0573 0000637  74.0329 268.0069  1.00271354 22701
FENGYUN 4A              
1 41882U 16077A   23026.65942076 -.00000334  00000+0  00000+0 0  9995
2 41882   0.0900  72.1088 0005587 350.0586  45.5765  1.00272568 22571
CYGFM05                 
1 41884U 16078A   23026.93597716  .00006450  00000+0  30999-3 0  9994
2 41884  34.9550 248.5113 0015608 293.8849  66.0228 15.18038681338841
CYGFM04                 
1 41885U 16078B   23026.84172758  .00006529  00000+0  30884-3 0  9990
2 41885  34.9483 237.0463 0013977 310.8032  49.1468 15.18606000338944
CYGFM02                 
1 41886U 16078C   23026.89252443  .00006684  00000+0  31572-3 0  9993
2 41886  34.9573 239.0097 0014682 305.5560  54.3784 15.18646964338943
CYGFM01                 
1 41887U 16078D   23025.98045305  .00006607  00000+0  31940-3 0  9994
2 41887  34.9515 257.2372 0016166 284.7371  75.1550 15.17820041338542
CYGFM08                 
1 41888U 16078E   23026.88035942  .00006226  00000+0  29675-3 0  9990
2 41888  34.9485 243.1833 0015193 304.8163  55.1120 15.18338186338857
CYGFM07                 
1 41890U 16078G   23025.94474938  .00006839  00000+0  32372-3 0  9999
2 41890  34.9503 242.4519 0013544 301.4357  58.5031 15.18578731338658
CYGFM03                 
1 41891U 16078H   23026.86362072  .00006666  00000+0  31551-3 0  9993
2 41891  34.9536 237.2338 0013067 307.0739  52.8779 15.18592750338936
FENGYUN 3D              
1 43010U 17072A   23027.12822682  .00000208  00000+0  12076-3 0  9998
2 43010  98.8441 335.8898 0001849  28.9363 331.1915 14.19135412269495
NOAA 20                 
1 43013U 17073A   23027.22315086  .00000150  00000+0  91713-4 0  9990
2 43013  98.7402 327.4971 0001572  97.4243 262.7112 14.19550537268973
GOES 17                 
1 43226U 18022A   23026.58372062 -.00000040  00000+0  00000+0 0  9999
2 43226   0.0159 154.5758 0000725 200.7252 219.9322  1.00595578 18019
FENGYUN 2H              
1 43491U 18050A   23026.87615762 -.00000133  00000+0  00000+0 0  9996
2 43491   1.7163  93.2966 0002024  72.6390 354.7323  1.00271835 17104
METOP-C                 
1 43689U 18087A   23027.41592027  .00000151  00000+0  88951-4 0  9999
2 43689  98.7047  89.0757 0004080 107.7091 252.4532 14.21479182219127
GEO-KOMPSAT-2A          
1 43823U 18100A   23027.40119069 -.00000346  00000+0  00000+0 0  9996
2 43823   0.0129 125.2483 0000532 274.4167 359.3868  1.00273595 15268
METEOR-M2 2             
1 44387U 19038A   23027.12786764  .00000104  00000+0  65009-4 0  9990
2 44387  98.7550 351.4675 0001677  28.1478 331.9794 14.23744682185230
FENGYUN 3E              
1 49008U 21062A   23027.20050817  .00000059  00000+0  48398-4 0  9998
2 49008  98.7181  30.7004 0002886  72.1692 287.9807 14.19755912 81062
GOES 18                 
1 51850U 22021A   23027.17383160  .00000094  00000+0  00000+0 0  9990
2 51850   0.0321 226.6873 0000173  24.1885 160.8744  1.00269602  3403
NOAA 21 (JPSS-2)        
1 54234U 22150A   23027.24080665  .00000176  00000+0  10394-3 0  9996
2 54234  98.7042 327.4984 0001108  84.0444 276.0858 14.19562500 11057
METEOSAT-12             
1 54743U 22170C   23026.32903295 -.00000033  00000+0  00000+0 0  9996
2 54743   0.9019 298.9895 0000722 137.5218 163.9874  1.00274196   561
STARLINK-5382           
1 54820U 22177A   23026.75001157 -.01195512  00000+0 -30834-1 0  9991
2 54820  42.9986 199.6560 0001418 271.1479  87.3223 15.41315797  4765
STARLINK-5385           
1 54821U 22177B   23026.75001157 -.01196713  00000+0 -30560-1 0  9992
2 54821  42.9985 199.6458 0001430 270.5214  92.4174 15.41613932  4769
STARLINK-5101           
1 54822U 22177C   23026.75001157 -.01198854  00000+0 -29598-1 0  9990
2 54822  42.9985 199.5976 0001459 276.2447 106.2983 15.42618809  4767
STARLINK-5106           
1 54823U 22177D   23026.75001157 -.01196867  00000+0 -30459-1 0  9991
2 54823  42.9984 199.6392 0001442 275.5839  90.1050 15.41716362  4767
STARLINK-4643           
1 54824U 22177E   23026.75001157 -.01196461  00000+0 -30269-1 0  9991
2 54824  42.9987 199.6296 0001424 271.3433  97.7715 15.41891125  4760
STARLINK-4801           
1 54825U 22177F   23026.75001157 -.01196923  00000+0 -29867-1 0  9997
2 54825  42.9980 199.6146 0001421 270.5725 105.7548 15.42299572  4763
STARLINK-5107           
1 54826U 22177G   23026.75001157 -.01198914  00000+0 -29625-1 0  9992
2 54826  42.9988 199.6013 0001512 276.9759 103.6915 15.42593111  4764
STARLINK-5383           
1 54827U 22177H   23026.75001157 -.01197874  00000+0 -29147-1 0  9996
2 54827  42.9976 199.5837 0001429 275.9287 113.6357 15.43044946  4766
STARLINK-5381           
1 54828U 22177J   23026.75001157 -.01198705  00000+0 -28860-1 0  9992
2 54828  42.9982 199.5716 0001458 280.4860 113.3287 15.43357875  4767
STARLINK-5380           
1 54829U 22177K   23026.75001157 -.01197163  00000+0 -30100-1 0  9990
2 54829  42.9984 199.6225 0001439 274.8399  97.6781 15.42076002  4761
STARLINK-5394           
1 54830U 22177L   23026.75001157 -.01199820  00000+0 -27753-1 0  9994
2 54830  42.9990 199.5394 0001437 277.4155 129.6736 15.44531305  4763
STARLINK-5395           
1 54831U 22177M   23026.75001157 -.01198674  00000+0 -29335-1 0  9999
2 54831  42.9984 199.5886 0001469 280.5492 105.9989 15.42876964  4765
STARLINK-5393           
1 54832U 22177N   23026.49402936  .00002776  00000+0  24609-4 0  9997
2 54832  42.9986 199.4117 0002127 259.3500 100.7129 15.71354829  5729
STARLINK-5391           
1 54833U 22177P   23026.75001157 -.01199941  00000+0 -28132-1 0  9993
2 54833  42.9997 199.5463 0001428 274.4849 128.4474 15.44139159  4764
STARLINK-5386           
1 54834U 22177Q   23026.75001157 -.01201168  00000+0 -27277-1 0  9998
2 54834  43.0000 199.5247 0001465 277.5182 134.7978 15.45069659  4764
STARLINK-5389           
1 54835U 22177R   23026.75001157 -.01197614  00000+0 -28694-1 0  9993
2 54835  42.9988 199.5630 0001418 276.9726 119.5937 15.43498134  4767
STARLINK-5384           
1 54836U 22177S   23026.75001157 -.01200788  00000+0 -27202-1 0  9995
2 54836  42.9996 199.5155 0001439 277.7528 138.1982 15.45139613  4764
STARLINK-5369           
1 54837U 22177T   23026.75001157 -.01199270  00000+0 -27176-1 0  9999
2 54837  42.9993 199.5215 0001423 279.4406 134.8561 15.45127211  4763
STARLINK-5372           
1 54838U 22177U   23026.75001157 -.01200749  00000+0 -26802-1 0  9999
2 54838  43.0007 199.4998 0001421 277.5557 143.9073 15.45567532  4766
STARLINK-5110           
1 54839U 22177V   23026.75001157 -.01199831  00000+0 -26449-1 0  9996
2 54839  42.9991 199.4919 0001377 267.2936 159.0723 15.45926338  4760
STARLINK-5368           
1 54840U 22177W   23027.25001157 -.01186313  00000+0 -26922-1 0  9991
2 54840  43.0010 196.5741 0001560 260.8927  74.3634 15.45053105  4842
STARLINK-4659           
1 54841U 22177X   23026.75001157 -.01198167  00000+0 -26976-1 0  9995
2 54841  43.0004 199.5064 0001316 269.5942 149.0755 15.45312809  4763
STARLINK-5387           
1 54842U 22177Y   23026.00001157 -.01179152  00000+0 -23679-1 0  9994
2 54842  42.9995 203.8378 0001340 268.9166 301.5571 15.48542433  1305
STARLINK-5304           
1 54843U 22177Z   23026.75001157 -.01200844  00000+0 -26635-1 0  9995
2 54843  43.0005 199.4939 0001404 274.2523 149.6044 15.45750706  4761
